{
  "type": "FeatureCollection",
  "features": [
    {
      "type": "Feature",
      "properties": {
        "norad_id": 37781,
        "name": "HAIYANG-2A",
        "group": "resource",
        "lat": 78.09454575626546,
        "lon": -67.06743533458295,
        "alt_km": 959.4582778145941,
        "timestamp": "2025-12-09T05:43:20.384572+00:00",
        "meta_object_name": "HAIYANG-2A",
        "meta_object_id": "2011-043A",
        "meta_epoch": "2025-12-08T20:36:56.674656",
        "meta_mean_motion": 13.78833499,
        "meta_eccentricity": 0.0001668,
        "meta_inclination": 99.3373,
        "meta_ra_of_asc_node": 343.8527,
        "meta_arg_of_pericenter": 88.4129,
        "meta_mean_anomaly": 271.7213,
        "meta_ephemeris_type": 0,
        "meta_classification_type": "U",
        "meta_norad_cat_id": 37781,
        "meta_element_set_no": 999,
        "meta_rev_at_epoch": 72045,
        "meta_bstar": -0.00030666,
        "meta_mean_motion_dot": -3.56e-06,
        "meta_mean_motion_ddot": 0,
        "tle_line1": "1 37781U 11043A   25342.85898929 -.00000356  00000+0 -30666-3 0  9998",
        "tle_line2": "2 37781  99.3373 343.8527 0001668  88.4129 271.7213 13.78833499720453"
      },
      "geometry": {
        "type": "Point",
        "coordinates": [
          -67.06743533458295,
          78.09454575626546
        ]
      }
    },
    {
      "type": "Feature",
      "properties": {
        "norad_id": 37791,
        "name": "RASAT",
        "group": "resource",
        "lat": 21.004630375976127,
        "lon": -104.33060241338801,
        "alt_km": 665.8657749755021,
        "timestamp": "2025-12-09T05:43:20.384583+00:00",
        "meta_object_name": "RASAT",
        "meta_object_id": "2011-044D",
        "meta_epoch": "2025-12-08T21:23:04.755264",
        "meta_mean_motion": 14.67900875,
        "meta_eccentricity": 0.002195,
        "meta_inclination": 98.0656,
        "meta_ra_of_asc_node": 72.2061,
        "meta_arg_of_pericenter": 76.4257,
        "meta_mean_anomaly": 47.2601,
        "meta_ephemeris_type": 0,
        "meta_classification_type": "U",
        "meta_norad_cat_id": 37791,
        "meta_element_set_no": 999,
        "meta_rev_at_epoch": 76526,
        "meta_bstar": 0.00016442,
        "meta_mean_motion_dot": 8.94e-06,
        "meta_mean_motion_ddot": 0,
        "tle_line1": "1 37791U 11044D   25342.89102726  .00000894  00000+0  16442-3 0  9998",
        "tle_line2": "2 37791  98.0656  72.2061 0021950  76.4257  47.2601 14.67900875765262"
      },
      "geometry": {
        "type": "Point",
        "coordinates": [
          -104.33060241338801,
          21.004630375976127
        ]
      }
    },
    {
      "type": "Feature",
      "properties": {
        "norad_id": 37841,
        "name": "SRMSAT",
        "group": "resource",
        "lat": -17.898732756317425,
        "lon": 11.935383340974202,
        "alt_km": 846.5890033540154,
        "timestamp": "2025-12-09T05:43:20.384593+00:00",
        "meta_object_name": "SRMSAT",
        "meta_object_id": "2011-058D",
        "meta_epoch": "2025-12-08T18:35:17.754720",
        "meta_mean_motion": 14.11509665,
        "meta_eccentricity": 0.0011706,
        "meta_inclination": 19.9702,
        "meta_ra_of_asc_node": 131.9502,
        "meta_arg_of_pericenter": 269.448,
        "meta_mean_anomaly": 132.3331,
        "meta_ephemeris_type": 0,
        "meta_classification_type": "U",
        "meta_norad_cat_id": 37841,
        "meta_element_set_no": 999,
        "meta_rev_at_epoch": 73088,
        "meta_bstar": 0.00016661,
        "meta_mean_motion_dot": 5.72e-06,
        "meta_mean_motion_ddot": 0,
        "tle_line1": "1 37841U 11058D   25342.77451105  .00000572  00000+0  16661-3 0  9990",
        "tle_line2": "2 37841  19.9702 131.9502 0011706 269.4480 132.3331 14.11509665730882"
      },
      "geometry": {
        "type": "Point",
        "coordinates": [
          11.935383340974202,
          -17.898732756317425
        ]
      }
    },
    {
      "type": "Feature",
      "properties": {
        "norad_id": 38012,
        "name": "PLEIADES 1A",
        "group": "resource",
        "lat": 69.4955823736613,
        "lon": 33.43209521056318,
        "alt_km": 690.1379404208337,
        "timestamp": "2025-12-09T05:43:20.384604+00:00",
        "meta_object_name": "PLEIADES 1A",
        "meta_object_id": "2011-076F",
        "meta_epoch": "2025-12-08T20:08:38.334048",
        "meta_mean_motion": 14.58555657,
        "meta_eccentricity": 0.0001345,
        "meta_inclination": 98.1827,
        "meta_ra_of_asc_node": 55.6679,
        "meta_arg_of_pericenter": 73.1276,
        "meta_mean_anomaly": 63.7029,
        "meta_ephemeris_type": 0,
        "meta_classification_type": "U",
        "meta_norad_cat_id": 38012,
        "meta_element_set_no": 999,
        "meta_rev_at_epoch": 74424,
        "meta_bstar": 0.00015695,
        "meta_mean_motion_dot": 6.84e-06,
        "meta_mean_motion_ddot": 0,
        "tle_line1": "1 38012U 11076F   25342.83933257  .00000684  00000+0  15695-3 0  9991",
        "tle_line2": "2 38012  98.1827  55.6679 0001345  73.1276  63.7029 14.58555657744247"
      },
      "geometry": {
        "type": "Point",
        "coordinates": [
          33.43209521056318,
          69.4955823736613
        ]
      }
    },
    {
      "type": "Feature",
      "properties": {
        "norad_id": 38038,
        "name": "ZIYUAN 1-02C (ZY 1-02C)",
        "group": "resource",
        "lat": -56.739851007738366,
        "lon": -143.75721064565428,
        "alt_km": 772.1497115008833,
        "timestamp": "2025-12-09T05:43:20.384614+00:00",
        "meta_object_name": "ZIYUAN 1-02C (ZY 1-02C)",
        "meta_object_id": "2011-079A",
        "meta_epoch": "2025-12-08T20:52:50.800224",
        "meta_mean_motion": 14.38005251,
        "meta_eccentricity": 0.0006969,
        "meta_inclination": 98.4337,
        "meta_ra_of_asc_node": 48.955,
        "meta_arg_of_pericenter": 148.6929,
        "meta_mean_anomaly": 342.8385,
        "meta_ephemeris_type": 0,
        "meta_classification_type": "U",
        "meta_norad_cat_id": 38038,
        "meta_element_set_no": 999,
        "meta_rev_at_epoch": 73185,
        "meta_bstar": 0.00025127,
        "meta_mean_motion_dot": 7.17e-06,
        "meta_mean_motion_ddot": 0,
        "tle_line1": "1 38038U 11079A   25342.87003241  .00000717  00000+0  25127-3 0  9995",
        "tle_line2": "2 38038  98.4337  48.9550 0006969 148.6929 342.8385 14.38005251731854"
      },
      "geometry": {
        "type": "Point",
        "coordinates": [
          -143.75721064565428,
          -56.739851007738366
        ]
      }
    },
    {
      "type": "Feature",
      "properties": {
        "norad_id": 38046,
        "name": "ZIYUAN 3-1 (ZY 3-1)",
        "group": "resource",
        "lat": -14.455624342762865,
        "lon": -132.28582672232412,
        "alt_km": 371.0944483030826,
        "timestamp": "2025-12-09T05:43:20.384625+00:00",
        "meta_object_name": "ZIYUAN 3-1 (ZY 3-1)",
        "meta_object_id": "2012-001A",
        "meta_epoch": "2025-12-08T21:14:11.753664",
        "meta_mean_motion": 15.67820521,
        "meta_eccentricity": 0.0001953,
        "meta_inclination": 97.1753,
        "meta_ra_of_asc_node": 49.2138,
        "meta_arg_of_pericenter": 8.5671,
        "meta_mean_anomaly": 351.5623,
        "meta_ephemeris_type": 0,
        "meta_classification_type": "U",
        "meta_norad_cat_id": 38046,
        "meta_element_set_no": 999,
        "meta_rev_at_epoch": 77436,
        "meta_bstar": 0.00083903,
        "meta_mean_motion_dot": 0.00092842,
        "meta_mean_motion_ddot": 0,
        "tle_line1": "1 38046U 12001A   25342.88485826  .00092842  00000+0  83903-3 0  9990",
        "tle_line2": "2 38046  97.1753  49.2138 0001953   8.5671 351.5623 15.67820521774366"
      },
      "geometry": {
        "type": "Point",
        "coordinates": [
          -132.28582672232412,
          -14.455624342762865
        ]
      }
    },
    {
      "type": "Feature",
      "properties": {
        "norad_id": 38338,
        "name": "ARIRANG-3 (KOMPSAT-3)",
        "group": "resource",
        "lat": -69.50404976987132,
        "lon": -39.1166802861415,
        "alt_km": 693.0271444600266,
        "timestamp": "2025-12-09T05:43:20.384635+00:00",
        "meta_object_name": "ARIRANG-3 (KOMPSAT-3)",
        "meta_object_id": "2012-025B",
        "meta_epoch": "2025-12-08T20:11:24.045792",
        "meta_mean_motion": 14.61705591,
        "meta_eccentricity": 0.0005635,
        "meta_inclination": 98.3318,
        "meta_ra_of_asc_node": 297.4014,
        "meta_arg_of_pericenter": 351.5071,
        "meta_mean_anomaly": 8.6033,
        "meta_ephemeris_type": 0,
        "meta_classification_type": "U",
        "meta_norad_cat_id": 38338,
        "meta_element_set_no": 999,
        "meta_rev_at_epoch": 72353,
        "meta_bstar": 0.00025683,
        "meta_mean_motion_dot": 1.231e-05,
        "meta_mean_motion_ddot": 0,
        "tle_line1": "1 38338U 12025B   25342.84125053  .00001231  00000+0  25683-3 0  9992",
        "tle_line2": "2 38338  98.3318 297.4014 0005635 351.5071   8.6033 14.61705591723536"
      },
      "geometry": {
        "type": "Point",
        "coordinates": [
          -39.1166802861415,
          -69.50404976987132
        ]
      }
    }
  ]
}